     2              NAVIGATION DATA                         RINEX VERSION / TYPE
CCRINEXN V1.6.0 UX  CDDIS               20-APR-16 15:33     PGM / RUN BY / DATE 
IGS BROADCAST EPHEMERIS FILE                                COMMENT             
    0.1583D-07  0.1490D-07 -0.1192D-06 -0.1192D-06          ION ALPHA           
    0.1065D+06  0.6554D+05 -0.1966D+06 -0.1966D+06          ION BETA            
    0.372529029846D-08 0.142108547152D-13   405504     1893 DELTA-UTC: A0,A1,T,W
    17                                                      LEAP SECONDS        
                                                            END OF HEADER       
10 16  4 19 22  0  0.0-0.226916745305D-05-0.954969436862D-11 0.000000000000D+00
    0.106000000000D+03-0.156875000000D+02 0.410267089271D-08-0.267387347384D+01
   -0.847503542900D-06 0.139527465217D-02 0.123195350170D-04 0.515369232368D+04
    0.252000000000D+06 0.149011611938D-07-0.495296692353D+00 0.502914190292D-07
    0.959807878548D+00 0.142625000000D+03-0.275222245807D+01-0.777318092704D-08
   -0.220723479733D-09 0.000000000000D+00 0.189300000000D+04 0.000000000000D+00
    0.280000000000D+01 0.000000000000D+00 0.232830643654D-08 0.106000000000D+03
    0.244800000000D+06 0.400000000000D+01 0.000000000000D+00 0.000000000000D+00
11 16  4 19 22  0  0.0-0.641970895231D-03-0.306954461848D-11 0.000000000000D+00
    0.790000000000D+02 0.166562500000D+02 0.664670543339D-08-0.969488057218D+00
    0.107847154141D-05 0.162837996613D-01 0.315159559250D-05 0.515365107155D+04
    0.252000000000D+06-0.279396772385D-06-0.190732639089D+01 0.223517417908D-06
    0.895917877753D+00 0.283531250000D+03 0.151588608583D+01-0.950111004508D-08
    0.642883921553D-11 0.100000000000D+01 0.189300000000D+04 0.000000000000D+00
    0.200000000000D+01 0.000000000000D+00-0.121071934700D-07 0.790000000000D+02
    0.247032000000D+06 0.400000000000D+01 0.000000000000D+00 0.000000000000D+00
12 16  4 19 22  0  0.0 0.376898795366D-03 0.136424205266D-11 0.000000000000D+00
    0.440000000000D+02-0.368750000000D+02 0.383730269620D-08-0.159191339420D+01
   -0.193342566490D-05 0.609679659829D-02 0.110883265734D-04 0.515375018692D+04
    0.252000000000D+06 0.104308128357D-06 0.270193706145D+01-0.186264514923D-07
    0.990541952894D+00 0.182500000000D+03 0.718110624601D+00-0.754602860810D-08
   -0.510735559900D-10 0.000000000000D+00 0.189300000000D+04 0.000000000000D+00
    0.200000000000D+01 0.000000000000D+00-0.125728547573D-07 0.440000000000D+02
    0.244800000000D+06 0.400000000000D+01 0.000000000000D+00 0.000000000000D+00
13 16  4 19 22  0  0.0-0.121016055346D-04-0.272848410532D-11 0.000000000000D+00
    0.710000000000D+02 0.807812500000D+02 0.435482425305D-08-0.149123268314D+00
    0.403262674808D-05 0.451408769004D-02 0.629387795925D-05 0.515368260002D+04
    0.252000000000D+06-0.391155481338D-07 0.668218265790D+00-0.335276126862D-07
    0.971930277529D+00 0.262812500000D+03 0.199229286018D+01-0.817105464294D-08
    0.470019578202D-09 0.100000000000D+01 0.189300000000D+04 0.000000000000D+00
    0.200000000000D+01 0.000000000000D+00-0.111758708954D-07 0.710000000000D+02
    0.245958000000D+06 0.400000000000D+01 0.000000000000D+00 0.000000000000D+00
14 16  4 19 22  0  0.0-0.929040834308D-05-0.216004991671D-11 0.000000000000D+00
    0.320000000000D+02 0.895625000000D+02 0.449875881993D-08 0.163502929849D+01
    0.468641519546D-05 0.848524528556D-02 0.678002834320D-05 0.515400324631D+04
    0.252000000000D+06-0.160187482834D-06 0.631413290612D+00-0.167638063431D-06
    0.964448920323D+00 0.247406250000D+03-0.196452941508D+01-0.822034241026D-08
    0.540736809573D-09 0.000000000000D+00 0.189300000000D+04 0.000000000000D+00
    0.200000000000D+01 0.000000000000D+00-0.931322574616D-08 0.320000000000D+02
    0.244800000000D+06 0.400000000000D+01 0.000000000000D+00 0.000000000000D+00
15 16  4 19 22  0  0.0-0.307222362608D-03-0.170530256582D-11 0.000000000000D+00
    0.620000000000D+02 0.901875000000D+02 0.513878547961D-08 0.900135537870D+00
    0.474043190479D-05 0.810347881634D-02 0.737234950066D-05 0.515357847214D+04
    0.252000000000D+06-0.875443220139D-07 0.496453709873D+00 0.150874257088D-06
    0.931368136661D+00 0.221718750000D+03 0.480643180306D+00-0.848428197583D-08
    0.352871841386D-09 0.000000000000D+00 0.189300000000D+04 0.000000000000D+00
    0.200000000000D+01 0.000000000000D+00-0.107102096081D-07 0.620000000000D+02
    0.244800000000D+06 0.400000000000D+01 0.000000000000D+00 0.000000000000D+00
17 16  4 19 22  0  0.0-0.203239265829D-03-0.341060513165D-12 0.000000000000D+00
    0.870000000000D+02 0.530625000000D+02 0.429160733410D-08 0.174072114327D+01
    0.248849391937D-05 0.109707132215D-01 0.790320336819D-05 0.515367371750D+04
    0.252000000000D+06-0.178813934326D-06-0.254108095754D+01-0.257045030594D-06
    0.976074137817D+00 0.236593750000D+03-0.193025005094D+01-0.791961559806D-08
    0.369301097159D-09 0.100000000000D+01 0.189300000000D+04 0.000000000000D+00
    0.280000000000D+01 0.000000000000D+00-0.107102096081D-07 0.870000000000D+02
    0.249426000000D+06 0.400000000000D+01 0.000000000000D+00 0.000000000000D+00
18 16  4 19 22  0  0.0 0.506514217705D-03 0.420641299570D-11 0.000000000000D+00
    0.420000000000D+02-0.292812500000D+02 0.475412659988D-08-0.298399835375D+01
   -0.157020986080D-05 0.170295684366D-01 0.118147581816D-04 0.515368580627D+04
    0.252000000000D+06 0.173225998878D-06-0.522904052870D+00-0.100582838059D-06
    0.925265528543D+00 0.128312500000D+03-0.189478779756D+01-0.784711257802D-08
   -0.240009997380D-09 0.000000000000D+00 0.189300000000D+04 0.000000000000D+00
    0.200000000000D+01 0.000000000000D+00-0.121071934700D-07 0.420000000000D+02
    0.244800000000D+06 0.400000000000D+01 0.000000000000D+00 0.000000000000D+00
19 16  4 19 22  0  0.0-0.525645911694D-03 0.000000000000D+00 0.000000000000D+00
    0.880000000000D+02 0.543125000000D+02 0.439446878886D-08-0.140712279773D+01
    0.289268791676D-05 0.107581542106D-01 0.684522092342D-05 0.515361203384D+04
    0.252000000000D+06 0.186264514923D-06-0.249221527463D+01-0.745058059692D-08
    0.973131704853D+00 0.252906250000D+03 0.744249626447D+00-0.795747467919D-08
    0.427874957687D-09 0.100000000000D+01 0.189300000000D+04 0.000000000000D+00
    0.200000000000D+01 0.000000000000D+00-0.149011611938D-07 0.880000000000D+02
    0.244800000000D+06 0.000000000000D+00 0.000000000000D+00 0.000000000000D+00
20 16  4 19 22  0  0.0 0.407038256526D-03 0.238742359215D-11 0.000000000000D+00
    0.600000000000D+02-0.293437500000D+02 0.504699594192D-08 0.965072133665D+00
   -0.157020986080D-05 0.465537456330D-02 0.109206885099D-04 0.515372568893D+04
    0.252000000000D+06-0.149011611938D-07-0.574765474546D+00-0.931322574615D-07
    0.926481150562D+00 0.155906250000D+03 0.135585289966D+01-0.829213111483D-08
   -0.392159192147D-09 0.100000000000D+01 0.189300000000D+04 0.000000000000D+00
    0.200000000000D+01 0.000000000000D+00-0.838190317154D-08 0.600000000000D+02
    0.244800000000D+06 0.400000000000D+01 0.000000000000D+00 0.000000000000D+00
21 16  4 19 22  0  0.0-0.519701745361D-03-0.147792889038D-11 0.000000000000D+00
    0.310000000000D+02-0.362812500000D+02 0.523057501730D-08-0.211275447949D+01
   -0.177510082722D-05 0.233664230909D-01 0.335089862347D-05 0.515362798119D+04
    0.252000000000D+06 0.320374965668D-06-0.156528600008D+01 0.353902578354D-07
    0.935670452921D+00 0.294687500000D+03-0.180057013569D+01-0.824034324337D-08
   -0.191793703263D-09 0.000000000000D+00 0.189300000000D+04 0.000000000000D+00
    0.200000000000D+01 0.000000000000D+00-0.102445483208D-07 0.310000000000D+02
    0.245310000000D+06 0.400000000000D+01 0.000000000000D+00 0.000000000000D+00
22 16  4 19 22  0  0.0 0.359332654625D-03-0.750333128963D-11 0.000000000000D+00
    0.270000000000D+02-0.405625000000D+02 0.505235330794D-08 0.141730050167D+01
   -0.215135514736D-05 0.787784054410D-02 0.118762254715D-04 0.515505214882D+04
    0.252000000000D+06-0.113621354103D-06-0.522181956506D+00-0.968575477600D-07
    0.923139020583D+00 0.134093750000D+03-0.198909144829D+01-0.833499004293D-08
   -0.394302138552D-09 0.000000000000D+00 0.189300000000D+04 0.000000000000D+00
    0.200000000000D+01 0.630000000000D+02-0.176951289177D-07 0.270000000000D+02
    0.251490000000D+06 0.400000000000D+01 0.000000000000D+00 0.000000000000D+00
23 16  4 19 22  0  0.0-0.170144718140D-03-0.170530256582D-11 0.000000000000D+00
    0.720000000000D+02 0.880312500000D+02 0.486948854803D-08 0.444391014075D+00
    0.471435487270D-05 0.107449530624D-01 0.721588730812D-05 0.515369375801D+04
    0.252000000000D+06-0.372529029846D-08 0.553673301618D+00 0.210478901863D-06
    0.946536396914D+00 0.233625000000D+03-0.259173702688D+01-0.841035032485D-08
    0.446804325479D-09 0.100000000000D+01 0.189300000000D+04 0.000000000000D+00
    0.200000000000D+01 0.000000000000D+00-0.200234353542D-07 0.720000000000D+02
    0.244818000000D+06 0.400000000000D+01 0.000000000000D+00 0.000000000000D+00
24 16  4 19 22  0  0.0-0.157868489623D-04-0.682121026330D-12 0.000000000000D+00
    0.104000000000D+03-0.351250000000D+02 0.523128933277D-08-0.164430347790D+00
   -0.174529850483D-05 0.440142315347D-02 0.306591391563D-05 0.515362017441D+04
    0.252000000000D+06 0.335276126862D-07 0.157989510232D+01 0.149011611938D-07
    0.949541894814D+00 0.315906250000D+03 0.413567063894D+00-0.863714548606D-08
   -0.110004582132D-09 0.000000000000D+00 0.189300000000D+04 0.000000000000D+00
    0.200000000000D+01 0.000000000000D+00 0.232830643654D-08 0.104000000000D+03
    0.244800000000D+06 0.400000000000D+01 0.000000000000D+00 0.000000000000D+00
